OBJECT_NAME,OBJECT_ID,EPOCH,MEAN_MOTION,ECCENTRICITY,INCLINATION,RA_OF_ASC_NODE,ARG_OF_PERICENTER,MEAN_ANOMALY,EPHEMERIS_TYPE,CLASSIFICATION_TYPE,NORAD_CAT_ID,ELEMENT_SET_NO,REV_AT_EPOCH,BSTAR,MEAN_MOTION_DOT,MEAN_MOTION_DDOT
SAUDISAT 1C (SO-50),2002-058C,2026-06-09T07:59:40.322976,14.83029515,.0075434,64.5504,153.2855,263.9300,95.3207,0,U,27607,999,26329,.12688E-3,.929E-5,0
SAUDISAT 2,2004-025F,2026-06-09T09:42:24.431616,14.56679290,.0023924,98.5506,160.1853,323.1050,36.8500,0,U,28371,999,16461,.65237E-4,.242E-5,0
SAUDISAT 3,2007-012B,2026-06-09T10:31:20.017632,14.71421134,.001333,98.1453,110.8342,250.7072,109.2693,0,U,31118,999,2660,.47679E-4,.244E-5,0
PISAT,2016-059B,2026-06-09T12:21:38.668032,14.68970440,.0027837,97.8178,161.2976,228.0857,131.7975,0,U,41784,999,51861,.15581E-3,.87E-5,0
FLYING LAPTOP,2017-042G,2026-06-09T12:28:27.682176,15.01096612,.0019178,97.4659,316.3501,146.7458,213.4976,0,U,42831,999,48530,.29577E-3,.3742E-4,0
SALSAT,2020-068K,2026-06-09T11:48:56.784096,15.29688082,.0008742,97.8855,163.0891,339.5990,20.4898,0,U,46495,999,31418,.25454E-3,.7245E-4,0
